[{"OBJECT_NAME":"ONEWEB-0458","OBJECT_ID":"2022-012AC","EPOCH":"2026-03-09T22:10:51.374208","MEAN_MOTION":13.1037606,"ECCENTRICITY":0.00016763,"INCLINATION":87.8783,"RA_OF_ASC_NODE":56.0174,"ARG_OF_PERICENTER":84.2135,"MEAN_ANOMALY":275.9183,"EPHEMERIS_TYPE":0,"CLASSIFICATION_TYPE":"U","NORAD_CAT_ID":51648,"ELEMENT_SET_NO":999,"REV_AT_EPOCH":19630,"BSTAR":-0.00084890746,"MEAN_MOTION_DOT":-2.84e-6,"MEAN_MOTION_DDOT":0},{"OBJECT_NAME":"UNKNOWN","OBJECT_ID":"","EPOCH":"2026-03-06T03:14:31.265376","MEAN_MOTION":12.81426946,"ECCENTRICITY":0.0149171,"INCLINATION":56.4354,"RA_OF_ASC_NODE":337.3034,"ARG_OF_PERICENTER":254.5569,"MEAN_ANOMALY":103.8838,"EPHEMERIS_TYPE":0,"CLASSIFICATION_TYPE":"U","NORAD_CAT_ID":81605,"ELEMENT_SET_NO":999,"REV_AT_EPOCH":19689,"BSTAR":-0.006199,"MEAN_MOTION_DOT":-1.613e-5,"MEAN_MOTION_DDOT":0}]
